[{"OBJECT_NAME":"STARLINK-36924","OBJECT_ID":"2026-041Q","EPOCH":"2026-03-09T22:00:01.999584","MEAN_MOTION":15.92990852,"ECCENTRICITY":6.183e-5,"INCLINATION":53.1591,"RA_OF_ASC_NODE":61.04,"ARG_OF_PERICENTER":91.7071,"MEAN_ANOMALY":265.2528,"EPHEMERIS_TYPE":0,"CLASSIFICATION_TYPE":"U","NORAD_CAT_ID":68054,"ELEMENT_SET_NO":999,"REV_AT_EPOCH":241,"BSTAR":-0.0044252412,"MEAN_MOTION_DOT":-0.0157661,"MEAN_MOTION_DDOT":0.00070785676},{"OBJECT_NAME":"NOAA 16 DEB","OBJECT_ID":"2000-055AJ","EPOCH":"2026-03-09T22:45:58.695264","MEAN_MOTION":15.81251105,"ECCENTRICITY":0.00074025,"INCLINATION":99.0584,"RA_OF_ASC_NODE":244.5578,"ARG_OF_PERICENTER":65.5662,"MEAN_ANOMALY":294.6372,"EPHEMERIS_TYPE":0,"CLASSIFICATION_TYPE":"U","NORAD_CAT_ID":41075,"ELEMENT_SET_NO":999,"REV_AT_EPOCH":55075,"BSTAR":0.0049218825,"MEAN_MOTION_DOT":0.01069422,"MEAN_MOTION_DDOT":0}]
